OBJECT_NAME,OBJECT_ID,EPOCH,MEAN_MOTION,ECCENTRICITY,INCLINATION,RA_OF_ASC_NODE,ARG_OF_PERICENTER,MEAN_ANOMALY,EPHEMERIS_TYPE,CLASSIFICATION_TYPE,NORAD_CAT_ID,ELEMENT_SET_NO,REV_AT_EPOCH,BSTAR,MEAN_MOTION_DOT,MEAN_MOTION_DDOT
H2SAT (HEINRICH HERTZ),2023-093A,2026-06-25T07:28:10.235712,1.00269986,.00008478,0.0482,107.4304,17.0766,261.6799,0,U,57213,999,1099,0,.11E-6,0
SYRACUSE 4B,2023-093B,2026-06-24T09:11:31.767648,1.00269725,.00002671,0.0239,21.5852,108.5537,273.8248,0,U,57214,999,703,0,0,0
JUPITER 3 (ECHOSTAR 24),2023-108A,2026-06-23T12:14:12.353280,1.00269415,.0001194,0.0217,7.9584,82.7820,269.2732,0,U,57479,999,1071,0,0,0
GALAXY 37 (G-37),2023-112A,2026-06-24T22:53:38.774400,1.00273244,.00022452,0.0160,31.7708,61.6422,36.1021,0,U,57493,999,1062,0,.57E-6,0
LUDI TANCE-4 01A,2023-120A,2026-06-24T12:46:39.657216,1.00268303,.00013671,15.1002,193.7787,22.2566,337.9252,0,U,57624,999,1062,0,-.158E-5,0
ZHONGXING-6E,2023-172A,2026-06-25T09:43:36.400224,1.00268063,.00031138,0.0381,262.0890,187.2615,85.5627,0,U,58253,999,974,0,-.351E-5,0
YAOGAN-41,2023-197A,2026-06-25T08:03:09.660672,1.00266850,.00143943,3.1133,313.2742,192.9274,11.1692,0,U,58582,999,940,0,-.351E-5,0
OVZON-3,2024-003A,2026-06-24T11:13:02.451072,1.00273967,.00001616,0.0073,50.9109,38.7380,50.9160,0,U,58698,999,752,0,.59E-6,0
INSAT-3DS,2024-033A,2026-06-25T12:59:26.013120,1.00270820,.00014377,0.0585,102.2359,341.1367,107.2422,0,U,58990,999,4715,0,-.145E-5,0
MERAH PUTIH 2,2024-035A,2026-06-25T14:13:38.608608,1.00270512,.00014618,0.0170,43.4167,56.9957,139.6680,0,U,58995,999,867,0,-.347E-5,0
TJS-11,2024-037A,2026-06-24T23:26:48.590592,1.00272796,.0003383,4.1886,327.1882,114.0582,296.2413,0,U,59020,999,866,0,-.354E-5,0
HULIANWAN GAOGUI-01 (HG-01),2024-040A,2026-06-24T23:34:38.637696,1.00270755,.00027705,0.0677,331.6577,73.6634,255.0386,0,U,59069,999,740,0,.165E-5,0
EUTELSAT 36D,2024-059A,2026-06-24T19:39:34.248960,1.00270360,.00005569,0.0231,16.9806,119.4534,107.2726,0,U,59346,999,822,0,0,0
PAKSAT-MM1,2024-104A,2026-06-25T12:46:49.721952,1.00270693,.00028385,0.0388,91.2975,342.6532,69.5789,0,U,59915,999,761,0,.164E-5,0
ASTRA 1P (SES-24),2024-115A,2026-06-24T21:45:00.000000,1.00274964,.00008284,0.0595,340.0652,24.8630,253.5862,0,U,60086,999,727,0,.129E-5,0
GOES 19,2024-119A,2026-06-25T12:14:31.519392,1.00271645,.00004793,0.0443,168.6712,333.6942,239.7212,0,U,60133,999,704,0,-.238E-5,0
ZHONGXING-3A,2024-122A,2026-06-25T02:48:55.293696,1.00270231,.0001292,0.0430,126.8220,351.8083,298.4362,0,U,60179,999,738,0,-.304E-5,0
TURKSAT 6A,2024-127A,2026-06-25T08:38:38.566176,1.00275873,.00019249,0.0588,220.3166,272.6888,312.1748,0,U,60233,999,709,0,.156E-5,0
HULIANWAN GAOGUI-02 (HG-02),2024-135A,2026-06-25T03:36:38.736576,1.00271607,.00074493,0.0431,357.3362,13.5264,109.6933,0,U,60327,999,758,0,-.164E-5,0
ZHONGXING-4A,2024-151A,2026-06-25T14:13:38.608608,1.00269974,.00004879,1.2925,270.7195,206.7564,127.8828,0,U,60606,999,683,0,-.351E-5,0
HULIANWAN GAOGUI-03 (HG-03),2024-181A,2026-06-25T08:48:40.628160,1.00273676,.00014149,0.0460,358.5440,93.2530,236.7381,0,U,61503,999,690,0,-.231E-5,0
DSN-3 (KIRAMEKI-3),2024-198A,2026-06-25T12:48:38.712096,1.00269788,.0000923,0.0157,323.6356,151.5103,134.7158,0,U,61733,999,600,0,-.24E-5,0
KOREASAT 6A,2024-206A,2026-06-25T14:13:38.608608,1.00268920,.0001065,0.0144,5.4472,76.9514,160.7668,0,U,61910,999,592,0,0,0
OPTUS-X (ADS-01),2024-212A,2026-06-25T10:49:38.647200,1.00272108,.00022307,0.0180,358.0838,130.6103,103.6874,0,U,62006,999,584,0,-.133E-5,0
GSAT-N2 (GSAT-20),2024-214A,2026-06-25T12:55:18.908256,1.00272013,.00022011,0.0566,104.0383,340.7410,90.6580,0,U,62028,999,598,0,-.9E-7,0
SXM-9,2024-234A,2026-06-23T08:51:54.877824,1.00271796,.00048956,0.0148,336.3648,341.8528,1.1406,0,U,62259,999,563,0,-.2E-5,0
TJS-12,2024-246A,2026-06-24T18:47:39.350112,1.00268446,.00021091,0.6533,299.9327,91.7487,309.6330,0,U,62374,999,564,0,-.223E-5,0
NUVIEW ALPHA,2024-252B,2026-06-24T08:49:41.361312,1.00270061,.0001427,0.0534,34.2511,41.0245,246.5697,0,U,62455,999,389,0,-.207E-5,0
AGILA,2024-252C,2026-06-24T09:56:48.529248,1.00271371,.0001526,0.0652,122.4429,345.1641,106.3124,0,U,62456,999,523,0,-.174E-5,0
NUVIEW BRAVO,2024-252D,2026-06-24T08:49:41.361312,1.00272657,.00023518,0.0745,147.1599,339.1991,195.4733,0,U,62457,999,386,0,-.207E-5,0
