H2SAT (HEINRICH HERTZ)  
1 57213U 23093A   26176.31122958  .00000011  00000+0  00000+0 0  9998
2 57213   0.0482 107.4304 0000847  17.0766 261.6799  1.00269986 10999
SYRACUSE 4B             
1 57214U 23093B   26175.38300657  .00000000  00000+0  00000+0 0  9997
2 57214   0.0239  21.5852 0000267 108.5537 273.8248  1.00269725  7038
JUPITER 3 (ECHOSTAR 24) 
1 57479U 23108A   26174.50986520  .00000000  00000+0  00000+0 0  9999
2 57479   0.0217   7.9584 0001194  82.7820 269.2732  1.00269415 10717
GALAXY 37 (G-37)        
1 57493U 23112A   26175.95392100  .00000057  00000+0  00000+0 0  9997
2 57493   0.0160  31.7708 0002245  61.6422  36.1021  1.00273244 10622
LUDI TANCE-4 01A        
1 57624U 23120A   26175.53240344 -.00000158  00000+0  00000+0 0  9991
2 57624  15.1002 193.7787 0001367  22.2566 337.9252  1.00268303 10620
ZHONGXING-6E            
1 58253U 23172A   26176.40528241 -.00000351  00000+0  00000+0 0  9994
2 58253   0.0381 262.0890 0003113 187.2615  85.5627  1.00268063  9741
YAOGAN-41               
1 58582U 23197A   26176.33552848 -.00000351  00000+0  00000+0 0  9998
2 58582   3.1133 313.2742 0014394 192.9274  11.1692  1.00266850  9409
OVZON-3                 
1 58698U 24003A   26175.46738948  .00000059  00000+0  00000+0 0  9997
2 58698   0.0073  50.9109 0000161  38.7380  50.9160  1.00273967  7529
INSAT-3DS               
1 58990U 24033A   26176.54127330 -.00000145  00000+0  00000+0 0  9999
2 58990   0.0585 102.2359 0001437 341.1367 107.2422  1.00270820 47158
MERAH PUTIH 2           
1 58995U 24035A   26176.59280797 -.00000347  00000+0  00000+0 0  9992
2 58995   0.0170  43.4167 0001461  56.9957 139.6680  1.00270512  8676
TJS-11                  
1 59020U 24037A   26175.97695128 -.00000354  00000+0  00000+0 0  9991
2 59020   4.1886 327.1882 0003383 114.0582 296.2413  1.00272796  8665
HULIANWAN GAOGUI-01 (H*)
1 59069U 24040A   26175.98239164  .00000165  00000+0  00000+0 0  9992
2 59069   0.0677 331.6577 0002770  73.6634 255.0386  1.00270755  7405
EUTELSAT 36D            
1 59346U 24059A   26175.81914640  .00000000  00000+0  00000+0 0  9999
2 59346   0.0231  16.9806 0000556 119.4534 107.2726  1.00270360  8224
PAKSAT-MM1              
1 59915U 24104A   26176.53251993  .00000164  00000+0  00000+0 0  9998
2 59915   0.0388  91.2975 0002838 342.6532  69.5789  1.00270693  7615
ASTRA 1P (SES-24)       
1 60086U 24115A   26175.90625000  .00000129  00000+0  00000+0 0  9996
2 60086   0.0595 340.0652 0000828  24.8630 253.5862  1.00274964  7272
GOES 19                 
1 60133U 24119A   26176.51008703 -.00000238  00000+0  00000+0 0  9998
2 60133   0.0443 168.6712 0000479 333.6942 239.7212  1.00271645  7040
ZHONGXING-3A            
1 60179U 24122A   26176.11730664 -.00000304  00000+0  00000+0 0  9990
2 60179   0.0430 126.8220 0001292 351.8083 298.4362  1.00270231  7383
TURKSAT 6A              
1 60233U 24127A   26176.36016859  .00000156  00000+0  00000+0 0  9990
2 60233   0.0588 220.3166 0001924 272.6888 312.1748  1.00275873  7099
HULIANWAN GAOGUI-02 (H*)
1 60327U 24135A   26176.15044834 -.00000164  00000+0  00000+0 0  9994
2 60327   0.0431 357.3362 0007449  13.5264 109.6933  1.00271607  7587
ZHONGXING-4A            
1 60606U 24151A   26176.59280797 -.00000351  00000+0  00000+0 0  9998
2 60606   1.2925 270.7195 0000487 206.7564 127.8828  1.00269974  6830
HULIANWAN GAOGUI-03 (H*)
1 61503U 24181A   26176.36713690 -.00000231  00000+0  00000+0 0  9993
2 61503   0.0460 358.5440 0001414  93.2530 236.7381  1.00273676  6905
DSN-3 (KIRAMEKI-3)      
1 61733U 24198A   26176.53378139 -.00000240  00000+0  00000+0 0  9990
2 61733   0.0157 323.6356 0000923 151.5103 134.7158  1.00269788  6009
KOREASAT 6A             
1 61910U 24206A   26176.59280797  .00000000  00000+0  00000+0 0  9998
2 61910   0.0144   5.4472 0001065  76.9514 160.7668  1.00268920  5922
OPTUS-X (ADS-01)        
1 62006U 24212A   26176.45114175 -.00000133  00000+0  00000+0 0  9991
2 62006   0.0180 358.0838 0002230 130.6103 103.6874  1.00272108  5848
GSAT-N2 (GSAT-20)       
1 62028U 24214A   26176.53841329 -.00000009  00000+0  00000+0 0  9996
2 62028   0.0566 104.0383 0002201 340.7410  90.6580  1.00272013  5986
SXM-9                   
1 62259U 24234A   26174.36938516 -.00000200  00000+0  00000+0 0  9991
2 62259   0.0148 336.3648 0004895 341.8528   1.1406  1.00271796  5638
TJS-12                  
1 62374U 24246A   26175.78309433 -.00000223  00000+0  00000+0 0  9994
2 62374   0.6533 299.9327 0002109  91.7487 309.6330  1.00268446  5640
NUVIEW ALPHA            
1 62455U 24252B   26175.36783983 -.00000207  00000+0  00000+0 0  9993
2 62455   0.0534  34.2511 0001427  41.0245 246.5697  1.00270061  3898
AGILA                   
1 62456U 24252C   26175.41445057 -.00000174  00000+0  00000+0 0  9990
2 62456   0.0652 122.4429 0001526 345.1641 106.3124  1.00271371  5239
NUVIEW BRAVO            
1 62457U 24252D   26175.36783983 -.00000207  00000+0  00000+0 0  9995
2 62457   0.0745 147.1599 0002351 339.1991 195.4733  1.00272657  3863
